region,name,address,city,state,zip,country,phone,website,latitude,longitude,Status,CenterType
Region 1,Sri Sathya Sai Center of Greater Hartford,50 Bloomfield Ave,Hartford,CT,6105,US,1234567890,http://www.nesaicenters.org/,41.7885,-72.71374,Active,Center
Region 1,Sri Sathya Sai Center of Glastonbury,NA,Glastonbury,CT,6025,US,1234567890,http://www.nesaicenters.org/,41.70703,-72.56713,Active,Center
Region 1,Sri Sathya Sai Center of Norwalk,435 Rowayton Ave,Norwalk,CT,6854,US,1234567890,http://www.nesaicenters.org/,41.06048,-73.44524,Inactive,Center
Region 1,Sri Sathya Sai Center of Shelton,2 Brook Pine Drive,Shelton,CT,6484,US,1234567890,http://www.nesaicenters.org/,41.3134,-73.13225,Inactive,Center
Region 1,Sri Sathya Sai Center of Stamford,83 Lockwood Ave.,Stamford,CT,6902,US,1234567890,http://www.nesaicenters.org/,41.0525,-73.52087,Active,Center
Region 1,Sri Sathya Sai Group of Newtown,8 Fairchild Dr,Newtown,CT,6470,US,1234567890,http://www.nesaicenters.org/,41.40558,-73.35679,Inactive,Group
Region 1,Sri Sathya Sai Group of North Haven,288 Spring Street,North Haven,CT,6540,US,1234567890,http://www.nesaicenters.org/,44.04534,-77.74026,Inactive,Group
Region 1,Sri Sathya Sai Group of Southeastern CT,NA,Old Saybrook,CT,6475,US,1234567890,http://www.nesaicenters.org,41.28751,-72.38505,Active,Group
Region 1,Sri Sathya Sai Center of Boston,6 William Street,Somerville,MA,2144,US,1234567890,http://www.nesaicenters.org/,43.10135,-82.11407,Active,Center
Region 1,Sri Sathya Sai Center of Chelmsford MA,Central Congregational Church 1 Worthen St,Chelmsford,MA,1824,US,1234567890,http://www.nesaicenters.org/,42.59908,-71.35512,Active,Center
Region 1,Sri Sathya Sai Center of Northborough,40 Church Street,Northborough,MA,1532,US,1234567890,http://www.nesaicenters.org/,52.65587,-0.29015,Active,Center
Region 1,Sri Sathya Sai Center of Norwood,150 Chapel St,Norwood,MA,2062,US,1234567890,http://www.nesaicenters.org/,42.18336,-71.21318,Active,Center
Region 1,Sri Sathya Sai Group of Amherst,21 Woodlot Road,Amherst,MA,1002,US,1234567890,http://www.nesaicenters.org/,42.35224,-72.49063,Active,Group
Region 1,Sri Sathya Sai Center of Scarborough,34 Fowler Farm Road,Scarborough,ME,4074,US,1234567890,http://www.nesaicenters.org/,-31.90162,115.76588,Inactive,Center
Region 1,Sri Sathya Sai Center of Albany,108 Heartland Drive,Schenectady,NY,12301,US,1234567890,http://www.nesaicenters.org/,42.74383,-73.94163,Active,Center
Region 1,Sri Sathya Sai Center of Buffalo,1595 N.French Rd,Getzville,NY,14068,US,1234567890,http://www.nesaicenters.org/,43.03478,-78.76781,Active,Center
Region 1,Sri Sathya Sai Center of Rochester,1400 N. Winton Road,Rochester,NY,14609,US,1234567890,http://www.nesaicenters.org/,43.17281,-77.54055,Active,Center
Region 1,Sri Sathya Sai Center of Scarsdale,130 River Court,White Plains,NY,10603,US,1234567890,http://www.nesaicenters.org/,41.02992,-73.76689,Inactive,Center
Region 1,Sri Sathya Sai Center of Syracuse,7599 Morgan Road,Liverpool,NY,13090,US,1234567890,http://www.nesaicenters.org/,43.1355,-76.20627,Inactive,Center
Region 1,Sri Sathya Sai Center of Wappinger Falls,59 Saddle Ridge Dr,Hopewell Junction,NY,12590,US,1234567890,http://www.nesaicenters.org/,41.57047,-73.79198,Active,Center
Region 1,Sri Sathya Sai Group of Ithaca,319 North Tioga Street,Ithaca,NY,14850,US,1234567890,http://www.nesaicenters.org/,44.04575,-77.74055,Active,Group
Region 1,Sri Sathya Sai Group of Cumberland,25 Apple Ridge Rd,Cumberland,RI,2864,US,1234567890,http://www.nesaicenters.org/,41.95056,-71.38529,Active,Group
Region 1,Sri Sathya Sai Center of Burlington,30 Jackson Heights,Essex Junction,VT,5452,US,1234567890,http://www.nesaicenters.org/,44.50508,-73.1278,Active,Center
Region 10,Sri Sathya Sai Center of Little Rock,2 Talais Dr,Little Rock,AR,72223,US,1234567890,https://sairegion10.org/,34.781934,-92.462617,Active,Center
Region 10,Sri Sathya Sai Group of New Orleans,NA,New Orleans,LA,70124,US,1234567890,https://sairegion10.org/,29.959599,-89.997669,Active,Group
Region 10,Sri Sathya Sai Center of Oklahoma City,7200 N Coltrane Rd,Oklahoma City,OK,73083,US,1234567890,https://sairegion10.org/,35.5446,-97.441735,Active,Center
Region 10,Sri Sathya Sai Group of Tulsa,8523 South 70th Ave,Tulsa,OK,74133,US,1234567890,https://sairegion10.org/,36.040399,-95.898058,Active,Group
Region 10,Sri Sathya Sai Center of El Paso,801 N. El Paso Street Ste 150,El Paso,TX,79902,US,1234567890,https://sairegion10.org/,31.762193,-106.49312,Active,Center
Region 10,Sri Sathya Sai Center of Austin,4110 Guadalupe St,Austin,TX,78751,US,1234567890,https://sairegion10.org/,30.307009,-97.735531,Active,Center
Region 10,Sri Sathya Sai Center of Dallas,2875 E. Parker Road,Plano,TX,75074,US,1234567890,https://sairegion10.org/,33.044987,-96.674451,Active,Center
Region 10,Sri Sathya Sai Center of Long View,1205 Windsong Lane,Long View,TX,75604,US,1234567890,https://sairegion10.org/,32.526261,-94.773003,Active,Center
Region 10,Sri Sathya Sai Center of North Houston,Lakewood Montessori School 12127 Malcomson Rd,Houston,TX,77070,US,1234567890,https://sairegion10.org/,29.995968,-95.605731,Active,Center
Region 10,Sri Sathya Sai Center of San Antonio,6387 De Zavala Road,San Antonio,TX,78249,US,1234567890,https://sairegion10.org/,29.56352665,-98.61193133,Active,Center
Region 10,Sri Sathya Sai Center of South Houston,246 Fluor Daniel Drive,Sugar Land,TX,77479,US,1234567890,https://sairegion10.org/,29.600232,-95.632693,Active,Center
Region 10,Sri Sathya Sai Group of Rio Grande,613 East Ridgeland Ave,Mcallen,TX,78503,US,1234567890,https://sairegion10.org/,26.171863,-98.218415,Inactive,Group
Region 10,Sri Sathya Sai Group of Beaumont,NA,Beaumont,TX,77701,US,1234567890,https://sairegion10.org/,0,0,Active,Group
Region 10,Sri Sathya Sai Center of Irving,8635 Lohr Valley Road,Irving,TX,75063,US,1234567890,https://sairegion10.org/,0,0,Active,Center
Region 10,Sri Sathya Sai Group of Northwest Arkansas,2402 SW Cadwell Avenue,Bentonville,AR,72713,US,1234567890,https://sairegion10.org/,0,0,Active,Group
Region 2,Sri Sathya Sai Center of Hockessin,NA,Hockessin,DE,19707,US,1234567890,http://www.sairegion2usa.org/,39.78384,-75.6816,Inactive,Center
Region 2,Sri Sathya Sai Center of Baltimore,Owen Brown Village Center 7246 Cradlerock Way,Columbia,MD,21045,US,1234567890,http://www.sairegion2usa.org/,39.186733,-76.8425,Inactive,Center
Region 2,Sri Sathya Sai Center of South Bethesda,NA,Bethesda,MD,20810,US,1234567890,http://www.sairegion2usa.org/,38.98,-77.1,Inactive,Center
Region 2,Sri Sathya Sai Group of Capital Area,NA,Bethesda,MD,20810,US,1234567890,http://www.sairegion2usa.org/,0,0,Active,Group
Region 2,Sri Sathya Sai Group of Central Jersey,NA,Hillsborough,NJ,8844,US,1234567890,http://www.sairegion2usa.org/,0,0,Active,Group
Region 2,Sri Sathya Sai Group of Washington D.C.,4217 East-West Hwy,Bethesda,MD,20814,US,1234567890,http://www.sairegion2usa.org/,38.986722,-77.085811,Active,Group
Region 2,Sri Sathya Sai Center of Atlantic City,20 Wexford Lane,Linwood,NJ,8221,US,1234567890,http://www.sairegion2usa.org/,39.361801,-74.573369,Active,Center
Region 2,Sri Sathya Sai Center of Belle Mead,14 Liberty Bell Court,Belle Mead,NJ,8502,US,1234567890,http://www.sairegion2usa.org/,40.441161,-74.639243,Active,Center
Region 2,Sri Sathya Sai Center of Bridgewater,5 Mayflower Drive,Basking ridge,NJ,7920,US,1234567890,http://www.sairegion2usa.org/,40.652017,-74.61958,Inactive,Center
Region 2,Sri Sathya Sai Center of Cherry Hill,401 North Kings Highway,Cherry Hill,NJ,8034,US,1234567890,http://www.sairegion2usa.org/,39.926427,-74.993598,Active,Center
Region 2,Sri Sathya Sai Center of East Brunswick,241 Rooney Ct,East Brunswick,NJ,8816,US,1234567890,http://www.sairegion2usa.org/,40.42353,-74.400346,Inactive,Center
Region 2,Sri Sathya Sai Center of Edison,NA,Edison,NJ,8817,US,1234567890,http://www.sairegion2usa.org/,40.519753,-74.393444,Inactive,Center
Region 2,Sri Sathya Sai Center of Holmdel,30 Ely Road,Holmdel,NJ,7733,US,1234567890,http://www.sairegion2usa.org/,40.351631,-74.173926,Active,Center
Region 2,Sri Sathya Sai Center of Jersey City,115 Glenwood Avenue,Jersey City,NJ,7306,US,1234567890,http://www.sairegion2usa.org/,40.728144,-74.072386,Active,Center
Region 2,Sri Sathya Sai Center of Old Tappan,6 Hillcrest Ct,Old Tappan,NJ,7675,US,1234567890,http://www.sairegion2usa.org/,41.026231,-73.969734,Active,Center
Region 2,Sri Sathya Sai Center of Scotch Plains,1347 Stelton Road,Piscataway,NJ,8854,US,1234567890,http://www.sairegion2usa.org/,40.54507,-74.42629,Active,Center
Region 2,Sri Sathya Sai Group of Fairlawn,8 Bolton Place,Fairlawn,NJ,7410,US,1234567890,http://www.sairegion2usa.org/,40.944157,-74.121341,Active,Group
Region 2,Sri Sathya Sai Group of Medford,7 Ridgemount Drive,Marlton,NJ,8053,US,1234567890,http://www.sairegion2usa.org/,39.898472,-74.909865,Inactive,Group
Region 2,Sri Sathya Sai Center of Bronx,2918 Kingsland Ave,Bronx,NY,10469,US,1234567890,http://www.sairegion2usa.org/,40.868881,-73.840178,Active,Center
Region 2,Sri Sathya Sai Center of Brooklyn,1357 Bushwick Ave,Brooklyn,NY,11207,US,1234567890,http://www.sairegion2usa.org/,40.685678,-73.910927,Active,Center
Region 2,Sri Sathya Sai Center of Flushing,45-52 Kissena Blvd,Flushing,NY,11355,US,1234567890,http://www.sairegion2usa.org/,40.750861,-73.819754,Active,Center
Region 2,Sri Sathya Sai Center of Manhattan,4 West 43rd Street,Manhattan,NY,10036,US,1234567890,http://www.sairegion2usa.org/,40.754389,-73.981208,Active,Center
Region 2,Sri Sathya Sai Center of Metropolin NY,28 East 35h St,New York,NY,10016,US,1234567890,http://www.sairegion2usa.org/,40.74796,-73.981867,Active,Center
Region 2,Sri Sathya Sai Center of South Ozone Park,125-01 111th avenue,South Ozone Park,NY,11420,US,1234567890,http://www.sairegion2usa.org/,40.682244,-73.816034,Active,Center
Region 2,Sri Sathya Sai Group at the UN,2 United Nations Plaza,New York,NY,10017,US,1234567890,http://www.sairegion2usa.org/,40.750606,-73.969262,Active,Group
Region 2,Sri Sathya Sai Group of New Hyde Park,159 South Street,New Hyde Park,NY,11040,US,1234567890,http://www.sairegion2usa.org/,40.754817,-73.664457,Active,Group
Region 2,Sri Sathya Sai Group of Port Jefferson,57 Admiral Street,Port Jefferson,NY,11776,US,1234567890,http://www.sairegion2usa.org/,40.929746,-73.048622,Active,Group
Region 2,Sri Sathya Sai Center of Doylestown,2040 Street Road,Warrington,PA,18976,US,1234567890,http://www.sairegion2usa.org/,40.227572,-75.137101,Inactive,Center
Region 2,Sri Sathya Sai Center of Hershey,708 Ferris Way,Hershey,PA,17033,US,1234567890,http://www.sairegion2usa.org/,40.298141,-76.635363,Inactive,Center
Region 2,Sri Sathya Sai Center of Lansdale,1912 Stirling Drive,Lansdale,PA,19446,US,1234567890,http://www.sairegion2usa.org/,40.214255,-75.31584,Inactive,Center
Region 2,Sri Sathya Sai Center of Pittsburgh,4836 Ellsworth Ave,Pittsburgh,PA,15213,US,1234567890,http://www.sairegion2usa.org/,40.449205,-79.945863,Active,Center
Region 2,Sri Sathya Sai Center of the Poconos,345 Remington Road,Poconos,PA,18301,US,1234567890,http://www.sairegion2usa.org/,41.113188,-75.39187,Active,Center
Region 2,Sri Sathya Sai Group of Malvern,1100 Osborne Road,Downingtown,PA,19335,US,1234567890,http://www.sairegion2usa.org/,40.013057,-75.744058,Active,Group
Region 2,Sri Sathya Sai Center of Fairfax,3955 Pender Dr Suite 105,Fairfax,VA,22030,US,1234567890,http://www.sairegion2usa.org/,38.86012,-77.331892,Active,Center
Region 2,Sri Sathya Sai Center of Falls Church,NA,Falls Church,VA,22040,US,1234567890,http://www.sairegion2usa.org,38.886379,-77.178879,Inactive,Center
Region 2,Sri Sathya Sai Center of Hampton Roads,1185 Knights Bridge Lane,Virginia Beach,VA,23455,US,1234567890,http://www.sairegion2usa.org/,36.877764,-76.158199,Active,Center
Region 2,Sri Sathya Sai Center of Loudoun,46111 Loudoun Park Lane,Sterling,VA,20164,US,1234567890,http://www.sairegion2usa.org/,39.012712,-77.404529,Inactive,Center
Region 2,Sri Sathya Sai Group of Charlottesville,1136 Rustic Willow Lane (cville.sai.grp.poc1@gmail.com),Charlottesville,VA,22911,US,1234567890,http://www.sairegion2usa.org/,38.103922,-78.432664,Active,Group
Region 2,Sri Sathya Sai Group of Richmond,11205 Oakstone Dr,Glen Allen,VA,23060,US,1234567890,http://www.sairegion2usa.org/,37.660031,-77.58587,Active,Group
Region 3,Sri Sathya Sai Group of Birmingham,1663 Lake Cyrus Club Dr,Birmingham,AL,35244,US,1234567890,http://sairegion3.org/,33.347473,-86.887728,Inactive,Group
Region 3,Sri Sathya Sai Group of Huntsville,311 Greenstone Drive,Madison,AL,35758,US,1234567890,http://sairegion3.org/,34.740789,-86.760767,Inactive,Group
Region 3,Sri Sathya Sai Group of Montgomery,2417 Old Creek Road,Montgomery,AL,36117,US,1234567890,http://sairegion3.org/,32.347487,-86.195557,Inactive,Group
Region 3,Sri Sathya Sai Group of South Colorado Springs,NA,Colorado Springs,CO,80921,US,1234567890,http://sairegion3.org/,39.031738,-104.96225,Active,Group
Region 3,Sri Sathya Sai Center of Clearwater,1417 S Belcher Rd,Clearwater,FL,33764,US,1234567890,https://sairegion3.org/clearwater-sai-group/,27.945608,-82.745418,Inactive,Center
Region 3,Sri Sathya Sai Center of Cocoa,1410 Lara Circle Unit 106,Rockledge,FL,32955,US,1234567890,http://sairegion3.org/,28.296658,-80.731047,Inactive,Center
Region 3,Sri Sathya Sai Center of Fort Lauderdale,3000 NW 29th Avenue,Oakland Park,FL,33311,US,1234567890,http://sairegion3.org/,26.163864,-80.183284,Active,Center
Region 3,Sri Sathya Sai Center of Gainesville,9933 NW 21st Ave,Gainesville,FL,32606,US,1234567890,http://sairegion3.org/,29.672428,-82.447644,Inactive,Center
Region 3,Sri Sathya Sai Center of Jacksonville,4968 Greenland Rd,Jacksonville,FL,32258,US,1234567890,http://sairegion3.org/,30.160901,-81.577399,Inactive,Center
Region 3,Sri Sathya Sai Center of Miami Central,1620 NW 7th Ave,Miami,FL,33136,US,1234567890,http://sairegion3.org/,25.790835,-80.20696,Active,Center
Region 3,Sri Sathya Sai Center of Orlando,Virtual,Orlando,FL,32809,US,1234567890,http://sairegion3.org/,28.461884,-81.402591,Active,Center
Region 3,Sri Sathya Sai Center of Palm Bay,767 Aragon Ave,Palm Bay,FL,32905,US,1234567890,http://sairegion3.org/,28.016475,-80.616756,Inactive,Center
Region 3,Sri Sathya Sai Center of South Miami,2470 NW 102 Place Unit 204,Doral,FL,33172,US,1234567890,http://sairegion3.org/,25.796213,-80.363342,Inactive,Center
Region 3,Sri Sathya Sai Center of Tampa,Unity Church in South Tampa 3302 W. Horatio Street,Tampa,FL,33609,US,1234567890,https://sairegion3.org/tampa-sai-center/,27.93958,-82.498077,Inactive,Center
Region 3,Sri Sathya Sai Center of West Palm Beach,11194 Silver Ridge Street,West palm Beach,FL,33449,US,1234567890,http://sairegion3.org/,26.616716,-80.224352,Inactive,Center
Region 3,Sri Sathya Sai Group of Bradenton,7309 5th Ave NW,Bradenton,FL,34209,US,1234567890,http://sairegion3.org/,27.502441,-82.634795,Inactive,Group
Region 3,Sri Sathya Sai Group of Fort Myers,899 Jennifer lane,Fort Myers,FL,33919,US,1234567890,http://sairegion3.org/,26.55,-81.89,Inactive,Group
Region 3,Sri Sathya Sai Group of Tallahassee,1378 Timberlane Road,Tallahassee,FL,32312,US,1234567890,http://sairegion3.org/,30.504016,-84.256483,Active,Group
Region 3,Sri Sathya Sai Center of Atlanta,1025 Mount Vernon Hwy NW Sandy Spring,Atlanta,GA,30327,US,1234567890,http://sairegion3.org/,33.902688,-84.420653,Inactive,Center
Region 3,Sri Sathya Sai Center of Northeast Atlanta,2115 Chloe Road,Cumming,GA,30041,US,1234567890,https://sairegion3.org/,34.115973,-84.159039,Active,Center
Region 3,Sri Sathya Sai Center of Charlotte,7400 City View Drive,Charlotte,NC,28212,US,1234567890,http://sairegion3.org/,35.179366,-80.739849,Inactive,Center
Region 3,Sri Sathya Sai Center of Greensboro,6308 New Bailey Trail,Greensboro,NC,27455,US,1234567890,http://sairegion3.org/,36.165303,-79.797751,Inactive,Center
Region 3,Sri Sathya Sai Center of Raleigh,309 Aviation Parkway,Morrisville,NC,27560,US,1234567890,http://sairegion3.org/,35.829441,-78.82008,Inactive,Center
Region 3,Sri Sathya Sai Group of Ashville,NA,Ashville,NC,28715,US,1234567890,http://sairegion3.org/,35.498905,-82.713132,Inactive,Group
Region 3,Sri Sathya Sai Center of Anderson,214 Dursely Dr,Anderson,SC,29621,US,1234567890,http://sairegion3.org/,34.577221,-82.645031,Inactive,Center
Region 3,Sri Sathya Sai Center of Chattanooga,910 Mockingbird Dr,Chattanooga,TN,37412,US,1234567890,http://sairegion3.org/,34.988226,-85.181049,Inactive,Center
Region 3,Sri Sathya Sai Center of St Thomas,1-B1 Frenchmans Bay,St Thomas,Virgin Islands,802,U.S. Virgin Islands,1234567890,http://sairegion3.org/,18.316385,-64.909573,Inactive,Center
Region 4,Sri Sathya Sai Center of Greater Kansas City,Please email to find details,Kansas City,KS,66101,US,1234567890,http://www.greaterkcsaicenter.com,39.12,-94.63,Inactive,Center
Region 4,Sri Sathya Sai Center of Southern Illinois,609 Mannington Court,Swansea,IL,62226,US,1234567890,http://www.stlsai.org/index.php/center-info/southern-illinois-sai-center,38.553849,-90.000308,Active,Center
Region 4,Sri Sathya Sai Center of Kansas City,8511 West 127th Terrace,Overland Park,KS,66213,US,1234567890,http://www.saicenterkc.org,38.897005,-94.684016,Inactive,Center
Region 4,Sri Sathya Sai Center of Lexington,3380 Malone Drive,Lexington,KY,40513,US,1234567890,http://region4.sathyasai.us,38.01694,-84.57092,Active,Center
Region 4,Sri Sathya Sai Center of Louisville,12933 Willow Forest Drive,Louisville,KY,40245,US,1234567890,http://region4.sathyasai.us,38.30347,-85.51557,Active,Center
Region 4,Sri Sathya Sai Center of Greater St Louis,11952 Natural Bridge Road,Bridgeton,MO,63044,US,1234567890,http://region4.sathyasai.us,38.75273,-90.38823,Active,Center
Region 4,Sri Sathya Sai Group of Columbia,2006 Holly Avenue,Columbia,MO,65202,US,1234567890,http://region4.sathyasai.us,38.97534,-92.30848,Active,Group
Region 4,Sri Sathya Sai Group of Poplar Bluff,2817 Charlton Lane,Poplar,MO,63901,US,1234567890,http://region4.sathyasai.us,42.13796,-71.96394,Inactive,Group
Region 4,Sri Sathya Sai Center of Jackson Mississippi,801 Norwich Dr,Madison,MS,39110,US,1234567890,http://region4.sathyasai.us,32.434659,-90.082796,Active,Center
Region 4,Sri Sathya Sai Center of Memphis,2989 Carnton Drive,Germantown,TN,38138,US,1234567890,http://region4.sathyasai.us,38.551,-89.55376,Active,Center
Region 4,Sri Sathya Sai Center of Nashville,1207 Hood Dr.,Brentwood,TN,37027,US,1234567890,http://region4.sathyasai.us,36.09025,-86.93832,Active,Center
Region 4,Sri Sathya Sai Group of Knoxville,1912 White Arum Lane,Knoxville,TN,37922,US,1234567890,http://region4.sathyasai.us,35.85682,-84.08098,Inactive,Group
Region 5,Sri Sathya Sai Center of Detroit Metro,33360 W 13 Mile Road,Farmington Hills,MI,48334,US,1234567890,https://www.saidetroit.org/,42.51321,-83.37813,Active,Center
Region 5,Sri Sathya Sai Center of Des Moines-Ames,504 66th CT,West Des Moines,IA,50266,US,1234567890,http://www.sathyasaicenters.org/p2/usr05/Home.aspx,41.576147,-93.799036,Active,Center
Region 5,Sri Sathya Sai Center of Iowa City,169 Auburn East ln,Iowa City,IA,52241,US,1234567890,http://www.sathyasaicenters.org/p2/usr05/Home.aspx,41.710013,-91.557279,Active,Center
Region 5,Sri Sathya Sai Center of Quad Cities,4516 Thornwood Dr,Quad Cities,IA,52722,US,1234567890,http://www.sathyasaicenters.org/p2/usr05/Home.aspx,41.567933,-90.460103,Active,Center
Region 5,Sri Sathya Sai Center of Bloomington,512 Eddy Rd,Bloomington,IL,61704,US,1234567890,http://www.sathyasaicenters.org/p2/usr05/Home.aspx,40.472186,-88.926625,Active,Center
Region 5,Sri Sathya Sai Center of Champaign-Urbana,301 Arbours Drive,Savoy,IL,61874,US,1234567890,http://www.sathyasaicenters.org/p2/usr05/Home.aspx,40.077114,-88.25302,Active,Center
Region 5,Sri Sathya Sai Center of Chicago Metro,Riverforest Community Center - 8020 Madison St,River Forest,IL,60305,US,1234567890,http://www.sathyasaicenters.org/p2/usr05/Home.aspx,41.879506,-87.825209,Active,Center
Region 5,Sri Sathya Sai Center of Chicago North Suburbs,530 Bernard Drive,Buffalo Grove,IL,60089,US,1234567890,http://www.sathyasaicenters.org/p2/usr05/Home.aspx,42.147651,-87.971074,Active,Center
Region 5,Sri Sathya Sai Center of Chicago West Suburbs,756 Sigmund Rd,Naperville,IL,60563,US,1234567890,http://www.sathyasaicenters.org/p2/usr05/Home.aspx,41.79675,-88.164852,Active,Center
Region 5,Sri Sathya Sai Center of Morton-Peoria,811 N Ohio Ave,Morton,IL,61550,US,3094722913,http://www.sathyasaicenters.org/p2/usr05,40.619593,-89.445223,Active,Center
Region 5,Sri Sathya Sai Center of Quincy,3132 Cabot Road,Quincy,IL,62301,US,1234567890,http://www.sathyasaicenters.org/p2/usr05/Home.aspx,39.916924,-91.364652,Active,Center
Region 5,Sri Sathya Sai Center of Fort Wayne,1920 Sycamore Hills Dr,Fort Wayne,IN,46814,US,1234567890,http://www.sathyasaicenters.org/p2/usr05/Home.aspx,41.067412,-85.280581,Active,Center
Region 5,Sri Sathya Sai Center of Indianapolis,NA,Indianapolis,IN,46077,US,1234567890,http://www.sathyasaicenters.org/p2/usr05/Home.aspx,39.983189,-86.2768,Inactive,Center
Region 5,Sri Sathya Sai Center of Northwest Indiana,316 Milford Haven Way,Munster,IN,46321,US,1234567890,http://www.sathyasaicenters.org/p2/usr05/Home.aspx,41.535358,-87.520207,Active,Center
Region 5,Sri Sathya Sai Center of South Bend,14474 Farmgate Dr,South Bend,IN,46530,US,1234567890,http://www.sathyasaicenters.org/p2/usr05/Home.aspx,38.630379,-77.253727,Active,Center
Region 5,Sri Sathya Sai Center of West Lafayette,Bharatitya Temple and Cultural Center of Grea,West Lafayette,IN,47906,US,1234567890,http://www.sathyasaicenters.org/p2/usr05/Home.aspx,40.458981,-86.92632,Active,Center
Region 5,Sri Sathya Sai Center of Ann Arbor,3361 Tacoma Circle,Ann Arbor,MI,48108,US,1234567890,http://www.sathyasaicenters.org/p2/usr05/Home.aspx,42.237793,-83.727323,Active,Center
Region 5,Sri Sathya Sai Center of East Lansing,NA,East Lansing,MI,48823,US,1234567890,http://www.sathyasaicenters.org/p2/usr05/Home.aspx,42.758734,-84.448772,Inactive,Center
Region 5,Sri Sathya Sai Center of Minneapolis South,1835 Polk St - NE,Minneapolis,MN,55418,US,1234567890,http://www.sathyasaicenters.org/p2/usr05/Home.aspx,45.00711,-93.245248,Active,Center
Region 5,Sri Sathya Sai Group of Rochester,4600 18th Ave NW,Rochester,MN,55901,US,1234567890,http://sathyasairochestermn.weebly.com,44.070444,-92.487981,Active,Group
Region 5,Sri Sathya Sai Center of Lincoln-Omaha,7716 S 172 St,Lincoln-Omaha,NE,68136,US,1234567890,http://www.sathyasaicenters.org/p2/usr05/Home.aspx,41.260515,-95.957266,Active,Center
Region 5,Sri Sathya Sai Center of Cincinnati-Dayton,723 Western Row Road,Cincinnati,OH,45040,US,1234567890,http://www.sathyasaicenters.org/p2/usr05/Home.aspx,39.336359,-84.326381,Active,Center
Region 5,Sri Sathya Sai Center of Cleveland East,33955 Sherbrook Park Drive,Solon,OH,44134,US,1234567890,http://www.sathyasaicenters.org/p2/usr05/Home.aspx,41.402313,-81.437936,Active,Center
Region 5,Sri Sathya Sai Center of Cleveland West,17397 Olde Surrey Ct,Cleveland,OH,44136,US,1234567890,http://www.sathyasaicenters.org/p2/usr05/Home.aspx,41.284173,-81.822449,Active,Center
Region 5,Sri Sathya Sai Center of Columbus,47 Hall Street,Columbus,OH,43065,US,1234567890,http://www.sathyasaicenters.org/p2/usr05/Home.aspx,40.156834,-83.076785,Active,Center
Region 5,Sri Sathya Sai Center of Toledo,11 Exmoor Ottawa Hills,Toledo,OH,43615,US,1234567890,http://www.sathyasaicenters.org/p2/usr05/Home.aspx,41.674161,-83.665636,Active,Center
Region 5,Sri Sathya Sai Center of Appleton,NA,Appleton,WI,54911,US,9209314215,http://www.sathyasaicenters.org/p2/usr05,44.283707,-88.372493,Active,Center
Region 5,Sri Sathya Sai Center of Greater Milwaukee,NA,Milwaukee,WI,53202,US,1234567890,http://www.sathyasaicenters.org/p2/usr05/Home.aspx,43.043978,-87.899151,Active,Center
Region 5,Sri Sathya Sai Center of Madison,5009 Esker Drive,Madison,WI,53704,US,6084389733,http://www.sathyasaicenters.org/p2/usr05/Home.aspx,43.114752,-89.2948,Active,Center
Region 5,Sri Sathya Sai Center of Milwaukee,2418 W. ManGold Ave,Milwaukee,WI,53221,US,1234567890,http://www.sathyasaicenters.org/p2/usr05/Home.aspx,42.93293,-87.946129,Active,Center
Region 6,Sri Sathya Sai Center of Beaverton,12250 SW Denney Rd,Beaverton,OR,97008,US,1234567890,http://www.sairegion6.org/,45.468748,-122.802972,Active,Center
Region 6,Sri Sathya Sai Center of Grants Pass,1425 NE Sommer Dr,Grants Pass,OR,97526,US,1234567890,http://www.sairegion6.org/,42.444211,-123.306376,Active,Center
Region 6,Sri Sathya Sai Center of Lakewood,5310 Josie Ave,Lakewood,OR,97130,US,1234567890,http://www.sairegion6.org/,33.853768,-118.10426,Inactive,Center
Region 6,Sri Sathya Sai Group of Eugene,6015 Greystone Loop,Eugene,OR,97478,US,1234567890,http://www.sairegion6.org/,44.041153,-122.920819,Inactive,Group
Region 6,Sri Sathya Sai Center of Lake Washington,8236 SE 24th St,Mercer Island,WA,98040,US,1234567890,http://www.sairegion6.org/,47.590027,-122.227487,Active,Center
Region 6,Sri Sathya Sai Center of Sammamish,1757 244th Ave NE,Sammamish,WA,98074,US,1234567890,http://www.sairegion6.org/,47.625581,-122.015084,Inactive,Center
Region 6,Sri Sathya Sai Center of Seattle Eastside,14654 148th Ave NE,Woodinville,WA,98072,US,1234567890,http://www.sairegion6.org/,47.631621,-122.20845,Active,Center
Region 6,Sri Sathya Sai Group of Olympia,Virtual,Olympia,WA,98502,US,1234567890,http://www.sairegion6.org/,47.079052,-122.961289,Active,Group
Region 6,Sri Sathya Sai Group of Pullman,2525 NW Wallingford Ct,Pullman,WA,99163,US,1234567890,http://www.sairegion6.org/,46.722116,-117.170071,Active,Group
Region 6,Sri Sathya Sai Group of Wedgewood,5603 241st St SW,Mountlake Terrace,WA,98043,US,1234567890,http://www.sairegion6.org/,47.780251,-122.308873,Inactive,Group
Region 6,Vancouver Sai Study Circle,6515 Kansas St,Vancouver,WA,98661,US,1234567890,http://www.sairegion6.org/,45.627973,-122.603987,Inactive,Group
Region 7,Sri Sathya Sai Center of Central San Jose, Center for Spiritual Living - 1195 Clark St,San Jose,CA,95125,US,1234567890,http://www.region7saicenters.org/,37.297411,-121.905019,Active,Center
Region 7,Sri Sathya Sai Center of Concord,NA,Concord,CA,94518,US,1234567890,http://www.region7saicenters.org/,37.946121,-122.021234,Inactive,Center
Region 7,Sri Sathya Sai Center of Elk Grove,9153 Lucchesi Dr,Sacramento,CA,95829,US,1234567890,http://www.region7saicenters.org/,38.456562,-121.359731,Active,Center
Region 7,Sri Sathya Sai Center of Fremont,Young Explorers School - 39454 Fremont Blvd,Fremont,CA,94538,US,1234567890,http://www.fremontsaicenter.org/,37.564055,-121.985494,Active,Center
Region 7,Sri Sathya Sai Center of Fresno,9647 N. Willey Court,Fresno,CA,93720,US,1234567890,http://www.region7saicenters.org/,36.876477,-119.743645,Active,Center
Region 7,Sri Sathya Sai Center of Oakland,1757 Clemens Road,Oakland,CA,94602,US,1234567890,http://www.region7saicenters.org/,37.810363,-122.212626,Active,Center
Region 7,Sri Sathya Sai Center of Peninsula,40 Twin Pines Lane,Belmont,CA,94002,US,1234567890,http://www.region7saicenters.org/,37.52,-122.28,Active,Center
Region 7,Sri Sathya Sai Group of Sacramento,4206 Borderlands Drive,Rancho Cordova,CA,95742,US,1234567890,http://www.region7saicenters.org/,38.591322,-121.27025,Active,Group
Region 7,Sri Sathya Sai Group of San Bruno,111 Elmwood Court,San Bruno,CA,94066,US,1234567890,http://www.region7saicenters.org/,37.632775,-122.44972,Active,Group
Region 7,Sri Sathya Sai Center of San Francisco,573 South Van Ness,San Francisco,CA,94110,US,1234567890,http://www.region7saicenters.org/,37.763975,-122.417283,Active,Center
Region 7,Sri Sathya Sai Center of San Jose,6506 Springpath Lane,San Jose,CA,95120,US,1234567890,http://www.region7saicenters.org/,37.220934,-121.882521,Active,Center
Region 7,Sri Sathya Sai Center of Santa Rosa,1080 Jennings Ave 217,Santa Rosa,CA,95491,US,1234567890,http://www.region7saicenters.org/,38.45249,-122.732122,Active,Center
Region 7,Sri Sathya Sai Center of Stockton,4809 Bridgewater Circle,Stockton,CA,95219,US,1234567890,http://www.region7saicenters.org/,37.979977,-121.365353,Active,Center
Region 7,Sri Sathya Sai Center of Tri Valley,3749  Norris Canyon Rd,San Ramon,CA,94583,US,1234567890,http://www.region7saicenters.org/,37.713365,-121.732593,Active,Center
Region 7,Sri Sathya Sai Group of Marin County,Center Rotates,Marin County,CA,94942,US,1234567890,http://www.region7saicenters.org/,44.386473,-64.362414,Active,Group
Region 7,Sri Sathya Sai Group of Monterey Peninsula,25881 Rancho Alto,Carmel,CA,93923,US,1234567890,http://www.region7saicenters.org/,36.525182,-121.80855,Active,Group
Region 7,Sri Sathya Sai Group of Santa Cruz,920 41st Ave,Santa Cruz,CA,95062,US,1234567890,http://www.region7saicenters.org/,36.965435,-121.964615,Active,Group
Region 7,Sri Sathya Sai Group of Reno,4020 Odile Ct,Reno,NV,89511,US,1234567890,http://www.region7saicenters.org/,39.438765,-119.808665,Active,Group
Region 7,Sri Sathya Sai Center of Tracy/ Mountain House,Sri Sathya Sai Baba abode of Supreme Peace- 244 West Grant Line Road,Tracy,CA,95376,US,1234567890,http://www.region7saicenters.org/,0,0,Active,Center
Region 7,Sri Sathya Sai Group of Evergreen,3297 Chateau du Lac,San Jose,CA,95148,US,1234567890,http://www.region7saicenters.org/,0,0,Active,Group
Region 7,Sri Sathya Sai Group of West San Jose,4509 Margaret Adele Lane, Tracy,CA,95377,US,1234567890,http://www.region7saicenters.org/,0,0,Active,Group
Region 8,Sri Sathya Sai Center of Arcadia,1220 Oaklawn,Arcadia,CA,91711,US,1234567890,http://region8saicenters.org/,34.152689,-118.047311,Active,Center
Region 8,Sri Sathya Sai Group of Atascadero,7007 Del Rio Rd,Atascadero,CA,93422,US,1234567890,http://region8saicenters.org/,35.511911,-120.70589,Active,Group
Region 8,Sri Sathya Sai Center of Camarillo,384 Twilight Court,Camarillo,CA,93012,US,1234567890,https://region8saicenters.org/centers/camarillo-center/,34.209326,-119.026467,Active,Center
Region 8,Sri Sathya Sai Center of Chatsworth,9345 Ventura Way,Chatsworth,CA,91311,US,1234567890,http://region8saicenters.org/,34.240021,-118.63761,Active,Center
Region 8,Sri Sathya Sai Center of Glendale,1118 E. Colorado St,Glendale,CA,91205,US,1234567890,https://region8saicenters.org/centers/glendale/,34.142236,-118.240928,Active,Center
Region 8,Sri Sathya Sai Center of Hollywood,7501 Hollywood Blvd,Hollywood,CA,90046,US,1234567890,https://region8saicenters.org/centers/hollywood-center/,34.1016322,-118.3501683,Active,Center
Region 8,Sri Sathya Sai Center of Karuna,2165 Coachman Lane,Corona,CA,92881,US,1234567890,https://region8saicenters.org/centers/karuna-center/,33.851945,-117.546764,Active,Center
Region 8,Sri Sathya Sai Center of Lomita,1943 262nd Street,Lomita,CA,90717,US,1234567890,http://region8saicenters.org/,33.78543,-118.31422,Active,Center
Region 8,Sri Sathya Sai Center of Los Angeles,2961 Motor Ave,Los Angeles,CA,90064,US,1234567890,http://region8saicenters.org/,34.037934,-118.408255,Active,Center
Region 8,Sri Sathya Sai Center of Mission Viejo,26801 Saddleback Drive,Mission Viejo,CA,92691,US,1234567890,http://region8saicenters.org/,33.603252,-117.662896,Active,Center
Region 8,Sri Sathya Sai Center of North East San Diego,Contact Ravi Rajaraman at raviram.karthik@gmail.com,San Diego,CA,92129,US,1234567890,https://region8saicenters.org/centers/north-san-diego-center/,32.940349,-117.148465,Inactive,Center
Region 8,Sri Sathya Sai Center of North San Diego,3401 Corte Brezo,Carlsbad,CA,92009,US,1234567890,https://region8saicenters.org/centers/north-san-diego-center/,33.084352,-117.231307,Active,Center
Region 8,Sri Sathya Sai Center of Ojai,1458 S. La Luna Ave,Ojai,CA,93023,US,1234567890,https://region8saicenters.org/centers/ojai-center/,34.430945,-119.288889,Active,Center
Region 8,Sri Sathya Sai Center of San Diego-Point Loma,767 Amiford Drive,Point Loma- San Diego,CA,92107,US,1234567890,http://region8saicenters.org/,32.720439,-117.252921,Active,Center
Region 8,Sri Sathya Sai Center of Santa Barbara,227 E Arrellaga St,Santa Barbara,CA,93101,US,1234567890,http://www.region8saicenters.org,34.430119,-119.707084,Active,Center
Region 8,Sri Sathya Sai Center of Santa Maria,916 Flackstone Street,Orcutt,CA,93455,US,1234567890,http://region8saicenters.org/,34.869833,-120.44731,Active,Center
Region 8,Sri Sathya Sai Center of Simi Valley,1659 Capewood Lane,Simi Valley,CA,93065,US,1234567890,https://region8saicenters.org/centers/simi-valley-center/,34.268203,-118.792234,Active,Center
Region 8,Sri Sathya Sai Center of South Bay Torrance,3886 West 230th street,Torrance,CA,90505,US,1234567890,https://region8saicenters.org/centers/torrance-south-bay-center/,33.818368,-118.353893,Active,Center
Region 8,Sri Sathya Sai Center of Thousand Oaks,59 Verde Vista Dr,Thousand Oaks,CA,91360,US,1234567890,http://region8saicenters.org/,34.22994,-118.87376,Active,Center
Region 8,Sri Sathya Sai Center of Torrance,21128 Doble Ave,Torrance,CA,90502,US,1234567890,http://region8saicenters.org/,33.837311,-118.290552,Active,Center
Region 8,Sri Sathya Sai Center of Tustin,625 French St,Santa Ana,CA,92701,US,1234567890,https://region8saicenters.org/centers/tustin-center/,33.750655,-117.864247,Inactive,Center
Region 8,Sri Sathya Sai Center of Upland,1916 Glenwood way,Upland,CA,91784,US,1234567890,http://region8saicenters.org/,34.13302,-117.677241,Active,Center
Region 8,Sri Sathya Sai Group of Hemet,41459 Shadow Palm Way,Hemet,CA,92544,US,1234567890,http://region8saicenters.org/,33.726431,-116.937568,Active,Group
Region 8,Sri Sathya Sai Group of San Marcos,2157 Coast Avenue,San Marcos,CA,92078,US,1234567890,http://region8saicenters.org/,33.122023,-117.223678,Active,Group
Region 8,Sri Sathya Sai Group of Maui,138 Kinohi Loa Loop,Wailuku,HI,96793,US,1234567890,https://region8saicenters.org/,20.871292,-156.506771,Active,Group
Region 8,Sri Sathya Sai Center of Oahu,1006 Lana'ai Street,Oahu,HI,96734,US,1234567890,http://region8saicenters.org/,19.492818,-155.11044,Inactive,Center
Region 8,Sri Sathya Sai Group of Puna,13-1267 Malama,Pahoa,HI,96778,US,1234567890,http://region8saicenters.org/,19.456638,-154.93432,Active,Group
Region 8,Sri Sathya Sai Group of Kona,77-267 Ho'omohala Rd,Kona,HI,96740,US,1234567890,http://region8saicenters.org/,19.595048,-155.961333,Inactive,Group
Region 8,Sri Sathya Sai Center of Las Vegas,3012 Gilmary Avenue,Las Vegas,NV,89102,US,1234567890,https://region8saicenters.org/centers/las-vegas-center/,36.152694,-115.182964,Active,Center
Region 8,Sathya Sai Group of Lakewood,5310 Josie Ave,Lakewood,CA,90713,US,1234567890,http://region8saicenters.org/,0,0,Active,Group
Region 9,Sri Sathya Sai Center of Mesa,630 W Southern Ave,Mesa,AZ,85210,US,1234567890,http://region9saicenters.org/,33.393575,-111.845261,Inactive,Center
Region 9,Sri Sathya Sai Center of Phoenix,5533 E Bell Road Suite 119,Scottsdale,AZ,85254,US,1234567890,http://region9saicenters.org/,33.640131,-111.96223,Inactive,Center
Region 9,Sri Sathya Sai Center of Scottsdale,12850 North Scottsdale Road,Scottsdale,AZ,85254,US,1234567890,http://region9saicenters.org/,33.603671,-111.926306,Inactive,Center
Region 9,Sri Sathya Sai Center of Tucson,931 N. Fifth Avenue,Tucson,AZ,85719,US,1234567890,http://region9saicenters.org/,32.23374,-110.967475,Inactive,Center
Region 9,Sri Sathya Sai Group of Greater Phoenix,33608 North 23rd Drive/Virtual for now,Phoenix,AZ,85085,US,1234567890,Construction,0,0,Active,Group
Region 9,Sri Sathya Sai Group of Prescott,Virtual,Prescott,AZ,86304,US,1234567890,Construction,0,0,Active,Group
Region 9,Sathya Sai Center of South East Denver,Virtual,Southeast Denver,CO,80222,US,1234567890,Construction,39.668113,-104.929896,Active,Center
Region 9,Sri Sathya Sai Center of Boulder,Virtual,Boulder,CO,80301,US,1234567890,Construction,40.02,-105.26,Active,Center
Region 9,Sri Sathya Sai Group of Colorado Springs,Temp closed,Colorado Springs,CO,80921,US,1234567890,Construction,38.8027923,-104.7008493,Active,Group
Region 9,Sri Sathya Sai Group of Denver,Virtual,Denver,CO,80222,US,1234567890,Construction,39.683481,-104.938383,Active,Group
Region 9,Sri Sathya Sai Group of Albuquerque,Virtual,Albuquerque,NM,87110,US,1234567890,Construction,35.099603,-106.591141,Active,Group
Region 9,Sri Sathya Sai Group of Santa Fe,Virtual,Santa Fe,NM,87507,US,5056600283,Construction,35.62279,-106.06194,Active,Group
Region 9,Sri Sathya Sai Group of Salt Lake City,Virtual,Salt Lake City,UT,84108,US,1234567890,Construction,40.738256,-111.828376,Active,Group
